CZ-2C R/B               
1 54039U 22132E   26059.27097034  .00039022  00000+0  46174-3 0  9995
2 54039  97.2964  62.3091 0020600 121.3201 239.0077 15.60912946188906
GSLV R/B                
1 54149U 22138AN  26059.29392052  .00003632  00000+0  31440-3 0  9991
2 54149  87.3878 169.5061 0021678 179.4805 180.6453 14.96690877182524
XRISM                   
1 57800U 23137A   26059.19688258  .00006095  00000+0  34664-3 0  9990
2 57800  31.0035 345.0570 0008245 303.4238  56.5612 15.11365080136353
ACS3                    
1 59588U 24077B   26059.27985426  .00019657  00000+0  15989-1 0  9990
2 59588  97.2119   2.5073 0053327 102.5767 258.1369 13.89134756 92890
SZ-21 MODULE            
1 66515U 25246C   26059.26581056  .00033650  00000+0  30009-3 0  9998
2 66515  41.4738 261.3392 0001450 285.9736  74.0946 15.67723977 16593
