CCSDS_OMM_VERS = 2.0
CREATION_DATE  = 
ORIGINATOR     = 

OBJECT_NAME    = CZ-2C R/B
OBJECT_ID      = 2022-132E
CENTER_NAME    = EARTH
REF_FRAME      = TEME
TIME_SYSTEM    = UTC
MEAN_ELEMENT_THEORY = SGP/SGP4

EPOCH          = 2026-02-28T06:30:11.837376
MEAN_MOTION    = 15.60912946
ECCENTRICITY   = .00206008
INCLINATION    = 97.2964
RA_OF_ASC_NODE = 62.3091
ARG_OF_PERICENTER = 121.3201
MEAN_ANOMALY   = 239.0077

EPHEMERIS_TYPE = 0
CLASSIFICATION_TYPE = U
NORAD_CAT_ID   = 54039
ELEMENT_SET_NO = 999
REV_AT_EPOCH   = 18890
BSTAR          = .46174125E-3
MEAN_MOTION_DOT = .39022E-3
MEAN_MOTION_DDOT = 0

CCSDS_OMM_VERS = 2.0
CREATION_DATE  = 
ORIGINATOR     = 

OBJECT_NAME    = GSLV R/B
OBJECT_ID      = 2022-138AN
CENTER_NAME    = EARTH
REF_FRAME      = TEME
TIME_SYSTEM    = UTC
MEAN_ELEMENT_THEORY = SGP/SGP4

EPOCH          = 2026-02-28T07:03:14.732928
MEAN_MOTION    = 14.96690877
ECCENTRICITY   = .00216781
INCLINATION    = 87.3878
RA_OF_ASC_NODE = 169.5061
ARG_OF_PERICENTER = 179.4805
MEAN_ANOMALY   = 180.6453

EPHEMERIS_TYPE = 0
CLASSIFICATION_TYPE = U
NORAD_CAT_ID   = 54149
ELEMENT_SET_NO = 999
REV_AT_EPOCH   = 18252
BSTAR          = .31439661E-3
MEAN_MOTION_DOT = .3632E-4
MEAN_MOTION_DDOT = 0

CCSDS_OMM_VERS = 2.0
CREATION_DATE  = 
ORIGINATOR     = 

OBJECT_NAME    = XRISM
OBJECT_ID      = 2023-137A
CENTER_NAME    = EARTH
REF_FRAME      = TEME
TIME_SYSTEM    = UTC
MEAN_ELEMENT_THEORY = SGP/SGP4

EPOCH          = 2026-02-28T04:43:30.654912
MEAN_MOTION    = 15.11365080
ECCENTRICITY   = .00082454
INCLINATION    = 31.0035
RA_OF_ASC_NODE = 345.0570
ARG_OF_PERICENTER = 303.4238
MEAN_ANOMALY   = 56.5612

EPHEMERIS_TYPE = 0
CLASSIFICATION_TYPE = U
NORAD_CAT_ID   = 57800
ELEMENT_SET_NO = 999
REV_AT_EPOCH   = 13635
BSTAR          = .34663581E-3
MEAN_MOTION_DOT = .6095E-4
MEAN_MOTION_DDOT = 0

CCSDS_OMM_VERS = 2.0
CREATION_DATE  = 
ORIGINATOR     = 

OBJECT_NAME    = ACS3
OBJECT_ID      = 2024-077B
CENTER_NAME    = EARTH
REF_FRAME      = TEME
TIME_SYSTEM    = UTC
MEAN_ELEMENT_THEORY = SGP/SGP4

EPOCH          = 2026-02-28T06:42:59.408064
MEAN_MOTION    = 13.89134756
ECCENTRICITY   = .00533276
INCLINATION    = 97.2119
RA_OF_ASC_NODE = 2.5073
ARG_OF_PERICENTER = 102.5767
MEAN_ANOMALY   = 258.1369

EPHEMERIS_TYPE = 0
CLASSIFICATION_TYPE = U
NORAD_CAT_ID   = 59588
ELEMENT_SET_NO = 999
REV_AT_EPOCH   = 9289
BSTAR          = .15989086E-1
MEAN_MOTION_DOT = .19657E-3
MEAN_MOTION_DDOT = 0

CCSDS_OMM_VERS = 2.0
CREATION_DATE  = 
ORIGINATOR     = 

OBJECT_NAME    = SZ-21 MODULE
OBJECT_ID      = 2025-246C
CENTER_NAME    = EARTH
REF_FRAME      = TEME
TIME_SYSTEM    = UTC
MEAN_ELEMENT_THEORY = SGP/SGP4

EPOCH          = 2026-02-28T06:22:46.032384
MEAN_MOTION    = 15.67723977
ECCENTRICITY   = .00014501
INCLINATION    = 41.4738
RA_OF_ASC_NODE = 261.3392
ARG_OF_PERICENTER = 285.9736
MEAN_ANOMALY   = 74.0946

EPHEMERIS_TYPE = 0
CLASSIFICATION_TYPE = U
NORAD_CAT_ID   = 66515
ELEMENT_SET_NO = 999
REV_AT_EPOCH   = 1659
BSTAR          = .3000903E-3
MEAN_MOTION_DOT = .3365E-3
MEAN_MOTION_DDOT = 0

